{
  "type": "FeatureCollection",
  "features": [
    {
      "type": "Feature",
      "properties": {
        "norad_id": 66703,
        "name": "PELICAN-6",
        "group": "last-30-days",
        "lat": -80.64644579049659,
        "lon": 119.29452322559645,
        "alt_km": 520.6613327912437,
        "timestamp": "2025-12-21T03:56:49.615340+00:00",
        "meta_object_name": "PELICAN-6",
        "meta_object_id": "2025-276AP",
        "meta_epoch": "2025-12-20T18:49:18.680736",
        "meta_mean_motion": 15.17322393,
        "meta_eccentricity": 9.45e-05,
        "meta_inclination": 97.4415,
        "meta_ra_of_asc_node": 66.4058,
        "meta_arg_of_pericenter": 261.7088,
        "meta_mean_anomaly": 98.4038,
        "meta_ephemeris_type": 0,
        "meta_classification_type": "U",
        "meta_norad_cat_id": 66703,
        "meta_element_set_no": 999,
        "meta_rev_at_epoch": 334,
        "meta_bstar": 0.00026486,
        "meta_mean_motion_dot": 5.216e-05,
        "meta_mean_motion_ddot": 0,
        "tle_line1": "1 66703U 25276AP  25354.78424399  .00005216  00000+0  26486-3 0  9991",
        "tle_line2": "2 66703  97.4415  66.4058 0000945 261.7088  98.4038 15.17322393  3341"
      },
      "geometry": {
        "type": "Point",
        "coordinates": [
          119.29452322559645,
          -80.64644579049659
        ]
      }
    },
    {
      "type": "Feature",
      "properties": {
        "norad_id": 66704,
        "name": "FLOCK 4H-1",
        "group": "last-30-days",
        "lat": -32.7470970626716,
        "lon": 71.61278968078814,
        "alt_km": 518.9287250457519,
        "timestamp": "2025-12-21T03:56:49.615351+00:00",
        "meta_object_name": "FLOCK 4H-1",
        "meta_object_id": "2025-276AQ",
        "meta_epoch": "2025-12-20T18:36:02.285280",
        "meta_mean_motion": 15.18052731,
        "meta_eccentricity": 0.0001688,
        "meta_inclination": 97.4391,
        "meta_ra_of_asc_node": 66.4094,
        "meta_arg_of_pericenter": 177.4553,
        "meta_mean_anomaly": 182.669,
        "meta_ephemeris_type": 0,
        "meta_classification_type": "U",
        "meta_norad_cat_id": 66704,
        "meta_element_set_no": 999,
        "meta_rev_at_epoch": 334,
        "meta_bstar": 0.00032804,
        "meta_mean_motion_dot": 6.614e-05,
        "meta_mean_motion_ddot": 0,
        "tle_line1": "1 66704U 25276AQ  25354.77502645  .00006614  00000+0  32804-3 0  9996",
        "tle_line2": "2 66704  97.4391  66.4094 0001688 177.4553 182.6690 15.18052731  3347"
      },
      "geometry": {
        "type": "Point",
        "coordinates": [
          71.61278968078814,
          -32.7470970626716
        ]
      }
    },
    {
      "type": "Feature",
      "properties": {
        "norad_id": 66705,
        "name": "FLOCK 4H-2",
        "group": "last-30-days",
        "lat": -30.55789035782131,
        "lon": 71.21746837006533,
        "alt_km": 518.3256976336706,
        "timestamp": "2025-12-21T03:56:49.615360+00:00",
        "meta_object_name": "FLOCK 4H-2",
        "meta_object_id": "2025-276AR",
        "meta_epoch": "2025-12-20T18:35:28.249728",
        "meta_mean_motion": 15.18102919,
        "meta_eccentricity": 0.0001033,
        "meta_inclination": 97.4385,
        "meta_ra_of_asc_node": 66.4102,
        "meta_arg_of_pericenter": 161.3115,
        "meta_mean_anomaly": 198.8157,
        "meta_ephemeris_type": 0,
        "meta_classification_type": "U",
        "meta_norad_cat_id": 66705,
        "meta_element_set_no": 999,
        "meta_rev_at_epoch": 334,
        "meta_bstar": 0.00031898,
        "meta_mean_motion_dot": 6.439e-05,
        "meta_mean_motion_ddot": 0,
        "tle_line1": "1 66705U 25276AR  25354.77463252  .00006439  00000+0  31898-3 0  9994",
        "tle_line2": "2 66705  97.4385  66.4102 0001033 161.3115 198.8157 15.18102919  3342"
      },
      "geometry": {
        "type": "Point",
        "coordinates": [
          71.21746837006533,
          -30.55789035782131
        ]
      }
    },
    {
      "type": "Feature",
      "properties": {
        "norad_id": 66706,
        "name": "FLOCK 4H-3",
        "group": "last-30-days",
        "lat": -78.54089572792047,
        "lon": 106.97137928219887,
        "alt_km": 519.1143484718414,
        "timestamp": "2025-12-21T03:56:49.615369+00:00",
        "meta_object_name": "FLOCK 4H-3",
        "meta_object_id": "2025-276AS",
        "meta_epoch": "2025-12-20T14:03:40.807008",
        "meta_mean_motion": 15.17453175,
        "meta_eccentricity": 0.0002777,
        "meta_inclination": 97.4457,
        "meta_ra_of_asc_node": 66.2251,
        "meta_arg_of_pericenter": 257.8939,
        "meta_mean_anomaly": 102.1984,
        "meta_ephemeris_type": 0,
        "meta_classification_type": "U",
        "meta_norad_cat_id": 66706,
        "meta_element_set_no": 999,
        "meta_rev_at_epoch": 331,
        "meta_bstar": 0.00027388,
        "meta_mean_motion_dot": 5.416e-05,
        "meta_mean_motion_ddot": 0,
        "tle_line1": "1 66706U 25276AS  25354.58588897  .00005416  00000+0  27388-3 0  9990",
        "tle_line2": "2 66706  97.4457  66.2251 0002777 257.8939 102.1984 15.17453175  3312"
      },
      "geometry": {
        "type": "Point",
        "coordinates": [
          106.97137928219887,
          -78.54089572792047
        ]
      }
    },
    {
      "type": "Feature",
      "properties": {
        "norad_id": 66707,
        "name": "FLOCK 4H-4",
        "group": "last-30-days",
        "lat": -76.73525272093453,
        "lon": -146.90475833182126,
        "alt_km": 519.3170999818549,
        "timestamp": "2025-12-21T03:56:49.615378+00:00",
        "meta_object_name": "FLOCK 4H-4",
        "meta_object_id": "2025-276AT",
        "meta_epoch": "2025-12-20T14:08:44.638656",
        "meta_mean_motion": 15.1718024,
        "meta_eccentricity": 0.0003453,
        "meta_inclination": 97.4439,
        "meta_ra_of_asc_node": 66.2152,
        "meta_arg_of_pericenter": 262.8492,
        "meta_mean_anomaly": 97.2349,
        "meta_ephemeris_type": 0,
        "meta_classification_type": "U",
        "meta_norad_cat_id": 66707,
        "meta_element_set_no": 999,
        "meta_rev_at_epoch": 331,
        "meta_bstar": 0.00027736,
        "meta_mean_motion_dot": 5.443e-05,
        "meta_mean_motion_ddot": 0,
        "tle_line1": "1 66707U 25276AT  25354.58940554  .00005443  00000+0  27736-3 0  9990",
        "tle_line2": "2 66707  97.4439  66.2152 0003453 262.8492  97.2349 15.17180240  3314"
      },
      "geometry": {
        "type": "Point",
        "coordinates": [
          -146.90475833182126,
          -76.73525272093453
        ]
      }
    },
    {
      "type": "Feature",
      "properties": {
        "norad_id": 66708,
        "name": "FLOCK 4H-5",
        "group": "last-30-days",
        "lat": -24.313917266620322,
        "lon": 70.18383853405906,
        "alt_km": 517.6946082777331,
        "timestamp": "2025-12-21T03:56:49.615386+00:00",
        "meta_object_name": "FLOCK 4H-5",
        "meta_object_id": "2025-276AU",
        "meta_epoch": "2025-12-20T18:33:49.032288",
        "meta_mean_motion": 15.18137255,
        "meta_eccentricity": 0.0001044,
        "meta_inclination": 97.439,
        "meta_ra_of_asc_node": 66.4151,
        "meta_arg_of_pericenter": 124.8939,
        "meta_mean_anomaly": 235.2393,
        "meta_ephemeris_type": 0,
        "meta_classification_type": "U",
        "meta_norad_cat_id": 66708,
        "meta_element_set_no": 999,
        "meta_rev_at_epoch": 334,
        "meta_bstar": 0.0002732,
        "meta_mean_motion_dot": 5.51e-05,
        "meta_mean_motion_ddot": 0,
        "tle_line1": "1 66708U 25276AU  25354.77348417  .00005510  00000+0  27320-3 0  9996",
        "tle_line2": "2 66708  97.4390  66.4151 0001044 124.8939 235.2393 15.18137255  3344"
      },
      "geometry": {
        "type": "Point",
        "coordinates": [
          70.18383853405906,
          -24.313917266620322
        ]
      }
    },
    {
      "type": "Feature",
      "properties": {
        "norad_id": 66709,
        "name": "FLOCK 4H-6",
        "group": "last-30-days",
        "lat": -42.443956902220854,
        "lon": 73.67646229470867,
        "alt_km": 519.2917441277959,
        "timestamp": "2025-12-21T03:56:49.615395+00:00",
        "meta_object_name": "FLOCK 4H-6",
        "meta_object_id": "2025-276AV",
        "meta_epoch": "2025-12-20T15:28:42.720096",
        "meta_mean_motion": 15.17882095,
        "meta_eccentricity": 0.000249,
        "meta_inclination": 97.4442,
        "meta_ra_of_asc_node": 66.2978,
        "meta_arg_of_pericenter": 216.2401,
        "meta_mean_anomaly": 143.8664,
        "meta_ephemeris_type": 0,
        "meta_classification_type": "U",
        "meta_norad_cat_id": 66709,
        "meta_element_set_no": 999,
        "meta_rev_at_epoch": 332,
        "meta_bstar": 0.00021199,
        "meta_mean_motion_dot": 4.229e-05,
        "meta_mean_motion_ddot": 0,
        "tle_line1": "1 66709U 25276AV  25354.64493889  .00004229  00000+0  21199-3 0  9991",
        "tle_line2": "2 66709  97.4442  66.2978 0002490 216.2401 143.8664 15.17882095  3325"
      },
      "geometry": {
        "type": "Point",
        "coordinates": [
          73.67646229470867,
          -42.443956902220854
        ]
      }
    }
  ]
}